[{"OBJECT_NAME":"STARLINK-30923","OBJECT_ID":"2023-178H","EPOCH":"2026-03-09T23:26:17.608416","MEAN_MOTION":15.30193411,"ECCENTRICITY":0.00012918,"INCLINATION":53.1616,"RA_OF_ASC_NODE":359.8171,"ARG_OF_PERICENTER":92.4141,"MEAN_ANOMALY":267.7007,"EPHEMERIS_TYPE":0,"CLASSIFICATION_TYPE":"U","NORAD_CAT_ID":58381,"ELEMENT_SET_NO":999,"REV_AT_EPOCH":12986,"BSTAR":4.711884e-5,"MEAN_MOTION_DOT":1.036e-5,"MEAN_MOTION_DDOT":0},{"OBJECT_NAME":"COSMOS 1975","OBJECT_ID":"1988-093A","EPOCH":"2026-03-09T14:15:08.474112","MEAN_MOTION":15.28069249,"ECCENTRICITY":0.0012117,"INCLINATION":82.5181,"RA_OF_ASC_NODE":117.7814,"ARG_OF_PERICENTER":163.8427,"MEAN_ANOMALY":196.3201,"EPHEMERIS_TYPE":0,"CLASSIFICATION_TYPE":"U","NORAD_CAT_ID":19573,"ELEMENT_SET_NO":999,"REV_AT_EPOCH":1939,"BSTAR":0.0002787,"MEAN_MOTION_DOT":7.676e-5,"MEAN_MOTION_DDOT":0}]
